NORAD_CAT_ID,OBJECT_NAME,OBJECT_TYPE,EPOCH,MEAN_MOTION,ECCENTRICITY,INCLINATION,RA_OF_ASC_NODE,ARG_OF_PERICENTER,MEAN_ANOMALY,BSTAR,MEAN_MOTION_DOT,MEAN_MOTION_DDOT,TLE_LINE0,TLE_LINE1,TLE_LINE2,SEMIMAJOR_AXIS,PERIOD,APOGEE,PERIGEE,DECAYED
53242.0,STARLINK-4056,PAYLOAD,2023-03-04 19:02:51,15.0883952,0.0001984,53.2176,101.2187,82.5997,277.5221,0.00050652,7.782e-05,0.0,0 STARLINK-4056,1 53242U 22086A   23063.79365059  .00007782  00000-0  50652-3 0  9997,2 53242  53.2176 101.2187 0001984  82.5997 277.5221 15.08839520 34615,6917.882,95.438,541.119,538.374,0.0
53242.0,STARLINK-4056,PAYLOAD,2023-03-05 10:56:43,15.08844051,0.0001823,53.2168,98.2514,104.8047,255.3148,0.0014258,0.00022479,0.0,0 STARLINK-4056,1 53242U 22086A   23064.45605612  .00022479  00000-0  14258-2 0  9994,2 53242  53.2168  98.2514 0001823 104.8047 255.3148 15.08844051 34719,6917.868,95.437,540.994,538.472,0.0
53242.0,STARLINK-4056,PAYLOAD,2023-03-05 18:53:38,15.08845343,0.0001519,53.2169,96.7624,88.4106,271.706,0.00058558,9.045e-05,0.0,0 STARLINK-4056,1 53242U 22086A   23064.78725509  .00009045  00000-0  58558-3 0  9994,2 53242  53.2169  96.7624 0001519  88.4106 271.7060 15.08845343 34765,6917.864,95.437,540.78,538.678,0.0
53242.0,STARLINK-4056,PAYLOAD,2023-03-06 06:01:20,15.08839535,0.0001485,53.2175,94.6829,99.6142,260.5018,0.0002415,3.558e-05,0.0,0 STARLINK-4056,1 53242U 22086A   23065.25093578  .00003558  00000-0  24150-3 0  9995,2 53242  53.2175  94.6829 0001485  99.6142 260.5018 15.08839535 34835,6917.882,95.438,540.774,538.72,0.0
53242.0,STARLINK-4056,PAYLOAD,2023-03-06 18:44:26,15.08830521,0.0001418,53.2161,92.3027,98.3461,261.7692,-6.4087e-05,-1.307e-05,0.0,0 STARLINK-4056,1 53242U 22086A   23065.78085848 -.00001307  00000-0 -64087-4 0  9990,2 53242  53.2161  92.3027 0001418  98.3461 261.7692 15.08830521 34917,6917.909,95.438,540.755,538.793,0.0
53242.0,STARLINK-4056,PAYLOAD,2023-03-07 18:35:13,15.08825696,0.0001243,53.2164,87.8424,87.8839,272.2295,-0.00013113,-2.373e-05,0.0,0 STARLINK-4056,1 53242U 22086A   23066.77446439 -.00002373  00000-0 -13113-3 0  9994,2 53242  53.2164  87.8424 0001243  87.8839 272.2295 15.08825696 35563,6917.924,95.438,540.649,538.929,0.0
53242.0,STARLINK-4056,PAYLOAD,2023-03-08 12:04:27,15.08868477,0.0001003,53.2146,84.5723,85.1251,274.9855,0.0026598,0.0004233,0.0,0 STARLINK-4056,1 53242U 22086A   23067.50310184  .00042330  00000-0  26598-2 0  9998,2 53242  53.2146  84.5723 0001003  85.1251 274.9855 15.08868477 35174,6917.793,95.436,540.352,538.964,0.0
53242.0,STARLINK-4056,PAYLOAD,2023-03-08 18:26:00,15.08860463,9.27e-05,53.2148,83.3819,86.6406,273.4692,0.001581,0.00024977,0.0,0 STARLINK-4056,1 53242U 22086A   23067.76806251  .00024977  00000-0  15810-2 0  9993,2 53242  53.2148  83.3819 0000927  86.6406 273.4692 15.08860463 35216,6917.818,95.436,540.324,539.042,0.0
53242.0,STARLINK-4056,PAYLOAD,2023-03-09 00:47:33,15.08856747,0.0001093,53.2148,82.1921,93.056,267.0557,0.001096,0.00017206,0.0,0 STARLINK-4056,1 53242U 22086A   23068.03302228  .00017206  00000-0  10960-2 0  9997,2 53242  53.2148  82.1921 0001093  93.0560 267.0557 15.08856747 35258,6917.829,95.436,540.45,538.938,0.0
53242.0,STARLINK-4056,PAYLOAD,2023-03-09 18:16:47,15.08860216,9.4e-05,53.2147,78.9221,49.5973,310.5101,0.00077067,0.00012005,0.0,0 STARLINK-4056,1 53242U 22086A   23068.76165721  .00012005  00000-0  77067-3 0  9996,2 53242  53.2147  78.9221 0000940  49.5973 310.5101 15.08860216 35869,6917.819,95.436,540.334,539.033,0.0
53242.0,STARLINK-4056,PAYLOAD,2023-03-10 05:24:29,15.08847745,0.0001459,53.2155,76.8414,79.0238,281.0918,0.00019809,2.867e-05,0.0,0 STARLINK-4056,1 53242U 22086A   23069.22533987  .00002867  00000-0  19809-3 0  9996,2 53242  53.2155  76.8414 0001459  79.0238 281.0918 15.08847745 35430,6917.857,95.437,540.731,538.712,0.0
53242.0,STARLINK-4056,PAYLOAD,2023-03-10 10:10:38,15.08854889,0.0001283,53.2163,75.9457,87.1936,272.9203,0.0003031,4.541e-05,0.0,0 STARLINK-4056,1 53242U 22086A   23069.42405501  .00004541  00000-0  30310-3 0  9999,2 53242  53.2163  75.9457 0001283  87.1936 272.9203 15.08854889 35967,6917.835,95.437,540.587,538.812,0.0
53242.0,STARLINK-4056,PAYLOAD,2023-03-11 03:39:53,15.0883468,0.0001305,53.2158,72.6765,96.9441,263.17,-7.1635e-05,-1.428e-05,0.0,0 STARLINK-4056,1 53242U 22086A   23070.15270365 -.00001428  00000-0 -71635-4 0  9998,2 53242  53.2158  72.6765 0001305  96.9441 263.1700 15.08834680 35579,6917.897,95.438,540.664,538.859,0.0
53242.0,STARLINK-4056,PAYLOAD,2023-03-11 11:36:48,15.08845231,0.0001494,53.2168,71.1889,106.4817,253.6339,7.0126e-05,8.28e-06,0.0,0 STARLINK-4056,1 53242U 22086A   23070.48389931  .00000828  00000-0  70126-4 0  9999,2 53242  53.2168  71.1889 0001494 106.4817 253.6339 15.08845231 36122,6917.864,95.437,540.763,538.696,0.0
53242.0,STARLINK-4056,PAYLOAD,2023-03-12 06:41:27,15.08840091,0.0001695,53.217,67.6196,107.7898,252.3279,0.00013609,1.878e-05,0.0,0 STARLINK-4056,1 53242U 22086A   23071.27878507  .00001878  00000-0  13609-3 0  9997,2 53242  53.2170  67.6196 0001695 107.7898 252.3279 15.08840091 35747,6917.88,95.438,540.918,538.573,0.0
53242.0,STARLINK-4056,PAYLOAD,2023-03-12 11:27:36,15.08848002,0.000143,53.2173,66.7285,105.4602,254.6548,0.0005032,7.731e-05,0.0,0 STARLINK-4056,1 53242U 22086A   23071.47750446  .00007731  00000-0  50320-3 0  9995,2 53242  53.2173  66.7285 0001430 105.4602 254.6548 15.08848002 36277,6917.856,95.437,540.71,538.732,0.0
53242.0,STARLINK-4056,PAYLOAD,2023-03-13 11:18:23,15.08870313,0.0001227,53.217,62.2696,114.3901,245.7219,0.0017388,0.00027516,0.0,0 STARLINK-4056,1 53242U 22086A   23072.47110406  .00027516  00000-0  17388-2 0  9991,2 53242  53.2170  62.2696 0001227 114.3901 245.7219 15.08870313 35923,6917.788,95.436,540.502,538.804,0.0
53242.0,STARLINK-4056,PAYLOAD,2023-03-14 04:47:38,15.08841729,0.0001315,53.2169,58.9985,129.7657,230.3451,0.0012575,0.00019783,0.0,0 STARLINK-4056,1 53242U 22086A   23073.19975036  .00019783  00000-0  12575-2 0  9999,2 53242  53.2169  58.9985 0001315 129.7657 230.3451 15.08841729 36030,6917.875,95.437,540.65,538.83,0.0
53242.0,STARLINK-4056,PAYLOAD,2023-03-14 09:33:47,15.08846782,0.0001091,53.2166,58.1068,99.0938,261.0178,0.0015597,0.00024626,0.0,0 STARLINK-4056,1 53242U 22086A   23073.39847209  .00024626  00000-0  15597-2 0  9990,2 53242  53.2166  58.1068 0001091  99.0938 261.0178 15.08846782 36562,6917.86,95.437,540.479,538.97,0.0
53242.0,STARLINK-4056,PAYLOAD,2023-03-14 15:55:20,15.08852073,0.0001252,53.217,56.9164,89.2158,270.8977,0.0014366,0.00022657,0.0,0 STARLINK-4056,1 53242U 22086A   23073.66343247  .00022657  00000-0  14366-2 0  9998,2 53242  53.2170  56.9164 0001252  89.2158 270.8977 15.08852073 36109,6917.843,95.437,540.575,538.842,0.0
53242.0,STARLINK-4056,PAYLOAD,2023-03-15 07:49:11,15.08877983,0.0001363,53.2169,53.9438,90.8439,269.2709,0.0013781,0.00021735,0.0,0 STARLINK-4056,1 53242U 22086A   23074.32582254  .00021735  00000-0  13781-2 0  9991,2 53242  53.2169  53.9438 0001363  90.8439 269.2709 15.08877983 36709,6917.764,95.435,540.572,538.686,0.0
53242.0,STARLINK-4056,PAYLOAD,2023-03-16 06:04:34,15.08862168,0.0001424,53.2167,49.7805,82.073,278.0423,0.00088406,0.00013818,0.0,0 STARLINK-4056,1 53242U 22086A   23075.25318227  .00013818  00000-0  88406-3 0  9991,2 53242  53.2167  49.7805 0001424  82.0730 278.0423 15.08862168 36343,6917.813,95.436,540.663,538.693,0.0
53242.0,STARLINK-4056,PAYLOAD,2023-03-16 07:39:58,15.08864659,0.0001417,53.2167,49.4831,82.0266,278.0887,0.0010037,0.00015733,0.0,0 STARLINK-4056,1 53242U 22086A   23075.31942145  .00015733  00000-0  10037-2 0  9992,2 53242  53.2167  49.4831 0001417  82.0266 278.0887 15.08864659 36852,6917.805,95.436,540.65,538.69,0.0
53242.0,STARLINK-4056,PAYLOAD,2023-03-16 15:36:53,15.08840302,0.0001447,53.2162,47.9956,87.5589,272.5569,0.00031219,4.684e-05,0.0,0 STARLINK-4056,1 53242U 22086A   23075.65062405  .00004684  00000-0  31219-3 0  9990,2 53242  53.2162  47.9956 0001447  87.5589 272.5569 15.08840302 36405,6917.879,95.438,540.745,538.743,0.0
53242.0,STARLINK-4056,PAYLOAD,2023-03-17 04:19:59,15.08837022,0.0001771,53.2172,45.6141,105.059,255.0598,0.00037239,5.643e-05,0.0,0 STARLINK-4056,1 53242U 22086A   23076.18054811  .00005643  00000-0  37239-3 0  9995,2 53242  53.2172  45.6141 0001771 105.0590 255.0598 15.08837022 36486,6917.889,95.438,540.98,538.529,0.0
53242.0,STARLINK-4056,PAYLOAD,2023-03-17 07:30:45,15.08831543,0.0001657,53.217,45.0202,105.381,254.7365,0.0006995,0.00010859,0.0,0 STARLINK-4056,1 53242U 22086A   23076.31302992  .00010859  00000-0  69950-3 0  9996,2 53242  53.2170  45.0202 0001657 105.3810 254.7365 15.08831543 37006,6917.906,95.438,540.918,538.625,0.0
53242.0,STARLINK-4056,PAYLOAD,2023-03-17 15:27:41,15.08829597,0.0001648,53.2174,43.5316,105.3889,254.7286,0.00034105,5.142e-05,0.0,0 STARLINK-4056,1 53242U 22086A   23076.64423242  .00005142  00000-0  34105-3 0  9997,2 53242  53.2174  43.5316 0001648 105.3889 254.7286 15.08829597 36552,6917.912,95.438,540.917,538.637,0.0
53242.0,STARLINK-4056,PAYLOAD,2023-03-17 21:49:14,15.08835265,0.0001614,53.2169,42.3422,104.9818,255.1353,0.00029611,4.427e-05,0.0,0 STARLINK-4056,1 53242U 22086A   23076.90919254  .00004427  00000-0  29611-3 0  9990,2 53242  53.2169  42.3422 0001614 104.9818 255.1353 15.08835265 37090,6917.895,95.438,540.876,538.643,0.0
53242.0,STARLINK-4056,PAYLOAD,2023-03-18 07:21:32,15.08846148,0.0001525,53.2173,40.5608,91.4828,268.6339,0.00037399,5.67e-05,0.0,0 STARLINK-4056,1 53242U 22086A   23077.30662982  .00005670  00000-0  37399-3 0  9991,2 53242  53.2173  40.5608 0001525  91.4828 268.6339 15.08846148 36659,6917.862,95.437,540.782,538.672,0.0
53242.0,STARLINK-4056,PAYLOAD,2023-03-19 04:01:33,15.08847795,0.0001441,53.2178,36.6962,101.3555,258.7599,0.00023421,3.442e-05,0.0,0 STARLINK-4056,1 53242U 22086A   23078.16774886  .00003442  00000-0  23421-3 0  9999,2 53242  53.2178  36.6962 0001441 101.3555 258.7599 15.08847795 36789,6917.857,95.437,540.718,538.725,0.0
